{
  "type": "Feature",
  "id": "226593",
  "properties": {
    "kulturminneId": "226593",
    "navn": "Stavneset",
    "sourceFeatureIds": [
      "lokalitet.102345"
    ],
    "linkKulturminnesøk": "https://kulturminnesok.no/ra/lokalitet/226593"
  },
  "geometry": {
    "type": "MultiPolygon",
    "coordinates": [
      [
        [
          [
            7.664064,
            63.11401
          ],
          [
            7.664786,
            63.114008
          ],
          [
            7.665966,
            63.114082
          ],
          [
            7.666376,
            63.114141
          ],
          [
            7.667034,
            63.114277
          ],
          [
            7.667591,
            63.114531
          ],
          [
            7.667532,
            63.114663
          ],
          [
            7.66727,
            63.11475
          ],
          [
            7.666523,
            63.114899
          ],
          [
            7.665696,
            63.114983
          ],
          [
            7.664339,
            63.115004
          ],
          [
            7.66365,
            63.114979
          ],
          [
            7.662967,
            63.114874
          ],
          [
            7.662178,
            63.114611
          ],
          [
            7.662079,
            63.114346
          ],
          [
            7.662157,
            63.114226
          ],
          [
            7.662428,
            63.114134
          ],
          [
            7.662562,
            63.114084
          ],
          [
            7.662859,
            63.114054
          ],
          [
            7.663507,
            63.114012
          ],
          [
            7.664064,
            63.11401
          ]
        ]
      ]
    ]
  },
  "cacheMetadata": {
    "verifiedDate": "2026-10-07",
    "sourceUrl": "https://wfs.geonorge.no/skwms1/wfs.kulturminner?service=WFS&version=2.0.0&request=GetFeature&typeNames=app%3ALokalitet&srsName=urn%3Aogc%3Adef%3Acrs%3AEPSG%3A%3A4326&count=1000&startIndex=0&filter=%3Cfes%3AFilter+xmlns%3Afes%3D%22http%3A%2F%2Fwww.opengis.net%2Ffes%2F2.0%22+xmlns%3Aapp%3D%22http%3A%2F%2Fskjema.geonorge.no%2FSOSI%2Fproduktspesifikasjon%2FLokaliteterEnkeltminnerOgSikringssoner%2F20210217%22%3E%3Cfes%3AOr%3E%3Cfes%3APropertyIsEqualTo%3E%3Cfes%3AValueReference%3Eapp%3AkulturminneId%3C%2Ffes%3AValueReference%3E%3Cfes%3ALiteral%3E226593%3C%2Ffes%3ALiteral%3E%3C%2Ffes%3APropertyIsEqualTo%3E%3Cfes%3APropertyIsEqualTo%3E%3Cfes%3AValueReference%3Eapp%3AlinkKulturminnes%C3%B8k%3C%2Ffes%3AValueReference%3E%3Cfes%3ALiteral%3Ehttps%3A%2F%2Fkulturminnesok.no%2Fra%2Flokalitet%2F226593%3C%2Ffes%3ALiteral%3E%3C%2Ffes%3APropertyIsEqualTo%3E%3C%2Ffes%3AOr%3E%3C%2Ffes%3AFilter%3E",
    "sourceUrls": [
      "https://wfs.geonorge.no/skwms1/wfs.kulturminner?service=WFS&version=2.0.0&request=GetFeature&typeNames=app%3ALokalitet&srsName=urn%3Aogc%3Adef%3Acrs%3AEPSG%3A%3A4326&count=1000&startIndex=0&filter=%3Cfes%3AFilter+xmlns%3Afes%3D%22http%3A%2F%2Fwww.opengis.net%2Ffes%2F2.0%22+xmlns%3Aapp%3D%22http%3A%2F%2Fskjema.geonorge.no%2FSOSI%2Fproduktspesifikasjon%2FLokaliteterEnkeltminnerOgSikringssoner%2F20210217%22%3E%3Cfes%3AOr%3E%3Cfes%3APropertyIsEqualTo%3E%3Cfes%3AValueReference%3Eapp%3AkulturminneId%3C%2Ffes%3AValueReference%3E%3Cfes%3ALiteral%3E226593%3C%2Ffes%3ALiteral%3E%3C%2Ffes%3APropertyIsEqualTo%3E%3Cfes%3APropertyIsEqualTo%3E%3Cfes%3AValueReference%3Eapp%3AlinkKulturminnes%C3%B8k%3C%2Ffes%3AValueReference%3E%3Cfes%3ALiteral%3Ehttps%3A%2F%2Fkulturminnesok.no%2Fra%2Flokalitet%2F226593%3C%2Ffes%3ALiteral%3E%3C%2Ffes%3APropertyIsEqualTo%3E%3C%2Ffes%3AOr%3E%3C%2Ffes%3AFilter%3E"
    ],
    "service": "wfs"
  }
}
