{
  "type": "Feature",
  "id": "86063",
  "properties": {
    "kulturminneId": "86063",
    "navn": "Høytorp fort (etabl. nr. 012501)",
    "sourceFeatureIds": [
      "lokalitet.275615"
    ],
    "linkKulturminnesøk": "https://kulturminnesok.no/ra/lokalitet/86063"
  },
  "geometry": {
    "type": "MultiPolygon",
    "coordinates": [
      [
        [
          [
            11.343651,
            59.557884
          ],
          [
            11.34413,
            59.559546
          ],
          [
            11.346757,
            59.56057
          ],
          [
            11.346931,
            59.561666
          ],
          [
            11.347202,
            59.562556
          ],
          [
            11.346099,
            59.564105
          ],
          [
            11.344247,
            59.565109
          ],
          [
            11.34105,
            59.564401
          ],
          [
            11.340543,
            59.564983
          ],
          [
            11.340112,
            59.565365
          ],
          [
            11.339775,
            59.565663
          ],
          [
            11.33964,
            59.565801
          ],
          [
            11.338756,
            59.566379
          ],
          [
            11.338318,
            59.566835
          ],
          [
            11.337773,
            59.567373
          ],
          [
            11.337432,
            59.567712
          ],
          [
            11.337237,
            59.567923
          ],
          [
            11.336759,
            59.567714
          ],
          [
            11.336531,
            59.567589
          ],
          [
            11.336413,
            59.567524
          ],
          [
            11.336095,
            59.567362
          ],
          [
            11.335354,
            59.566983
          ],
          [
            11.334945,
            59.566775
          ],
          [
            11.334889,
            59.566736
          ],
          [
            11.334849,
            59.566687
          ],
          [
            11.334766,
            59.566559
          ],
          [
            11.334788,
            59.566471
          ],
          [
            11.334225,
            59.565505
          ],
          [
            11.340638,
            59.55802
          ],
          [
            11.340973,
            59.558065
          ],
          [
            11.341106,
            59.558119
          ],
          [
            11.341915,
            59.558652
          ],
          [
            11.343041,
            59.557921
          ],
          [
            11.343651,
            59.557884
          ]
        ]
      ]
    ]
  },
  "cacheMetadata": {
    "verifiedDate": "2026-10-07",
    "sourceUrl": "https://wfs.geonorge.no/skwms1/wfs.kulturminner?service=WFS&version=2.0.0&request=GetFeature&typeNames=app%3ALokalitet&srsName=urn%3Aogc%3Adef%3Acrs%3AEPSG%3A%3A4326&count=1000&startIndex=0&filter=%3Cfes%3AFilter+xmlns%3Afes%3D%22http%3A%2F%2Fwww.opengis.net%2Ffes%2F2.0%22+xmlns%3Aapp%3D%22http%3A%2F%2Fskjema.geonorge.no%2FSOSI%2Fproduktspesifikasjon%2FLokaliteterEnkeltminnerOgSikringssoner%2F20210217%22%3E%3Cfes%3AOr%3E%3Cfes%3APropertyIsEqualTo%3E%3Cfes%3AValueReference%3Eapp%3AkulturminneId%3C%2Ffes%3AValueReference%3E%3Cfes%3ALiteral%3E86063%3C%2Ffes%3ALiteral%3E%3C%2Ffes%3APropertyIsEqualTo%3E%3Cfes%3APropertyIsEqualTo%3E%3Cfes%3AValueReference%3Eapp%3AlinkKulturminnes%C3%B8k%3C%2Ffes%3AValueReference%3E%3Cfes%3ALiteral%3Ehttps%3A%2F%2Fkulturminnesok.no%2Fra%2Flokalitet%2F86063%3C%2Ffes%3ALiteral%3E%3C%2Ffes%3APropertyIsEqualTo%3E%3C%2Ffes%3AOr%3E%3C%2Ffes%3AFilter%3E",
    "sourceUrls": [
      "https://wfs.geonorge.no/skwms1/wfs.kulturminner?service=WFS&version=2.0.0&request=GetFeature&typeNames=app%3ALokalitet&srsName=urn%3Aogc%3Adef%3Acrs%3AEPSG%3A%3A4326&count=1000&startIndex=0&filter=%3Cfes%3AFilter+xmlns%3Afes%3D%22http%3A%2F%2Fwww.opengis.net%2Ffes%2F2.0%22+xmlns%3Aapp%3D%22http%3A%2F%2Fskjema.geonorge.no%2FSOSI%2Fproduktspesifikasjon%2FLokaliteterEnkeltminnerOgSikringssoner%2F20210217%22%3E%3Cfes%3AOr%3E%3Cfes%3APropertyIsEqualTo%3E%3Cfes%3AValueReference%3Eapp%3AkulturminneId%3C%2Ffes%3AValueReference%3E%3Cfes%3ALiteral%3E86063%3C%2Ffes%3ALiteral%3E%3C%2Ffes%3APropertyIsEqualTo%3E%3Cfes%3APropertyIsEqualTo%3E%3Cfes%3AValueReference%3Eapp%3AlinkKulturminnes%C3%B8k%3C%2Ffes%3AValueReference%3E%3Cfes%3ALiteral%3Ehttps%3A%2F%2Fkulturminnesok.no%2Fra%2Flokalitet%2F86063%3C%2Ffes%3ALiteral%3E%3C%2Ffes%3APropertyIsEqualTo%3E%3C%2Ffes%3AOr%3E%3C%2Ffes%3AFilter%3E"
    ],
    "service": "wfs"
  }
}
