{
  "type": "Feature",
  "id": "94415",
  "properties": {
    "kulturminneId": "94415",
    "navn": "Greåker fort / Fort med geværgalleri",
    "sourceFeatureIds": [
      "lokalitet.285978"
    ],
    "linkKulturminnesøk": "https://kulturminnesok.no/ra/lokalitet/94415"
  },
  "geometry": {
    "type": "MultiPolygon",
    "coordinates": [
      [
        [
          [
            11.033852,
            59.272764
          ],
          [
            11.03369,
            59.272666
          ],
          [
            11.033291,
            59.272407
          ],
          [
            11.033072,
            59.272237
          ],
          [
            11.033105,
            59.272057
          ],
          [
            11.032954,
            59.272007
          ],
          [
            11.032812,
            59.271828
          ],
          [
            11.03251,
            59.271631
          ],
          [
            11.032509,
            59.271539
          ],
          [
            11.032904,
            59.271188
          ],
          [
            11.032993,
            59.271179
          ],
          [
            11.033058,
            59.271251
          ],
          [
            11.033338,
            59.271266
          ],
          [
            11.033623,
            59.271283
          ],
          [
            11.03378,
            59.271292
          ],
          [
            11.033954,
            59.271301
          ],
          [
            11.034104,
            59.271258
          ],
          [
            11.034564,
            59.271132
          ],
          [
            11.034585,
            59.271286
          ],
          [
            11.034516,
            59.271458
          ],
          [
            11.034514,
            59.271629
          ],
          [
            11.034444,
            59.271674
          ],
          [
            11.034465,
            59.271924
          ],
          [
            11.034248,
            59.271967
          ],
          [
            11.034519,
            59.272175
          ],
          [
            11.034057,
            59.272312
          ],
          [
            11.03439,
            59.272643
          ],
          [
            11.033852,
            59.272764
          ]
        ]
      ]
    ]
  },
  "cacheMetadata": {
    "verifiedDate": "2026-10-09",
    "sourceUrl": "https://wfs.geonorge.no/skwms1/wfs.kulturminner?service=WFS&version=2.0.0&request=GetFeature&typeNames=app%3ALokalitet&srsName=urn%3Aogc%3Adef%3Acrs%3AEPSG%3A%3A4326&count=1000&startIndex=0&filter=%3Cfes%3AFilter+xmlns%3Afes%3D%22http%3A%2F%2Fwww.opengis.net%2Ffes%2F2.0%22+xmlns%3Aapp%3D%22http%3A%2F%2Fskjema.geonorge.no%2FSOSI%2Fproduktspesifikasjon%2FLokaliteterEnkeltminnerOgSikringssoner%2F20210217%22%3E%3Cfes%3AOr%3E%3Cfes%3APropertyIsEqualTo%3E%3Cfes%3AValueReference%3Eapp%3AkulturminneId%3C%2Ffes%3AValueReference%3E%3Cfes%3ALiteral%3E94415%3C%2Ffes%3ALiteral%3E%3C%2Ffes%3APropertyIsEqualTo%3E%3Cfes%3APropertyIsEqualTo%3E%3Cfes%3AValueReference%3Eapp%3AlinkKulturminnes%C3%B8k%3C%2Ffes%3AValueReference%3E%3Cfes%3ALiteral%3Ehttps%3A%2F%2Fkulturminnesok.no%2Fra%2Flokalitet%2F94415%3C%2Ffes%3ALiteral%3E%3C%2Ffes%3APropertyIsEqualTo%3E%3C%2Ffes%3AOr%3E%3C%2Ffes%3AFilter%3E",
    "sourceUrls": [
      "https://wfs.geonorge.no/skwms1/wfs.kulturminner?service=WFS&version=2.0.0&request=GetFeature&typeNames=app%3ALokalitet&srsName=urn%3Aogc%3Adef%3Acrs%3AEPSG%3A%3A4326&count=1000&startIndex=0&filter=%3Cfes%3AFilter+xmlns%3Afes%3D%22http%3A%2F%2Fwww.opengis.net%2Ffes%2F2.0%22+xmlns%3Aapp%3D%22http%3A%2F%2Fskjema.geonorge.no%2FSOSI%2Fproduktspesifikasjon%2FLokaliteterEnkeltminnerOgSikringssoner%2F20210217%22%3E%3Cfes%3AOr%3E%3Cfes%3APropertyIsEqualTo%3E%3Cfes%3AValueReference%3Eapp%3AkulturminneId%3C%2Ffes%3AValueReference%3E%3Cfes%3ALiteral%3E94415%3C%2Ffes%3ALiteral%3E%3C%2Ffes%3APropertyIsEqualTo%3E%3Cfes%3APropertyIsEqualTo%3E%3Cfes%3AValueReference%3Eapp%3AlinkKulturminnes%C3%B8k%3C%2Ffes%3AValueReference%3E%3Cfes%3ALiteral%3Ehttps%3A%2F%2Fkulturminnesok.no%2Fra%2Flokalitet%2F94415%3C%2Ffes%3ALiteral%3E%3C%2Ffes%3APropertyIsEqualTo%3E%3C%2Ffes%3AOr%3E%3C%2Ffes%3AFilter%3E"
    ],
    "service": "wfs"
  }
}
