{
  "type": "Feature",
  "id": "94449",
  "properties": {
    "kulturminneId": "94449",
    "navn": "Hjelmkollen / Grensebefestning",
    "sourceFeatureIds": [
      "lokalitet.286037"
    ],
    "linkKulturminnesøk": "https://kulturminnesok.no/ra/lokalitet/94449"
  },
  "geometry": {
    "type": "MultiPolygon",
    "coordinates": [
      [
        [
          [
            11.274751,
            59.102334
          ],
          [
            11.273491,
            59.101965
          ],
          [
            11.273532,
            59.10185
          ],
          [
            11.273669,
            59.101545
          ],
          [
            11.274351,
            59.101232
          ],
          [
            11.274725,
            59.100609
          ],
          [
            11.275564,
            59.100169
          ],
          [
            11.275974,
            59.100119
          ],
          [
            11.276922,
            59.10033
          ],
          [
            11.277356,
            59.100702
          ],
          [
            11.277835,
            59.101186
          ],
          [
            11.276608,
            59.101736
          ],
          [
            11.275413,
            59.102196
          ],
          [
            11.274751,
            59.102334
          ]
        ]
      ]
    ]
  },
  "cacheMetadata": {
    "verifiedDate": "2026-10-07",
    "sourceUrl": "https://wfs.geonorge.no/skwms1/wfs.kulturminner?service=WFS&version=2.0.0&request=GetFeature&typeNames=app%3ALokalitet&srsName=urn%3Aogc%3Adef%3Acrs%3AEPSG%3A%3A4326&count=1000&startIndex=0&filter=%3Cfes%3AFilter+xmlns%3Afes%3D%22http%3A%2F%2Fwww.opengis.net%2Ffes%2F2.0%22+xmlns%3Aapp%3D%22http%3A%2F%2Fskjema.geonorge.no%2FSOSI%2Fproduktspesifikasjon%2FLokaliteterEnkeltminnerOgSikringssoner%2F20210217%22%3E%3Cfes%3AOr%3E%3Cfes%3APropertyIsEqualTo%3E%3Cfes%3AValueReference%3Eapp%3AkulturminneId%3C%2Ffes%3AValueReference%3E%3Cfes%3ALiteral%3E94449%3C%2Ffes%3ALiteral%3E%3C%2Ffes%3APropertyIsEqualTo%3E%3Cfes%3APropertyIsEqualTo%3E%3Cfes%3AValueReference%3Eapp%3AlinkKulturminnes%C3%B8k%3C%2Ffes%3AValueReference%3E%3Cfes%3ALiteral%3Ehttps%3A%2F%2Fkulturminnesok.no%2Fra%2Flokalitet%2F94449%3C%2Ffes%3ALiteral%3E%3C%2Ffes%3APropertyIsEqualTo%3E%3C%2Ffes%3AOr%3E%3C%2Ffes%3AFilter%3E",
    "sourceUrls": [
      "https://wfs.geonorge.no/skwms1/wfs.kulturminner?service=WFS&version=2.0.0&request=GetFeature&typeNames=app%3ALokalitet&srsName=urn%3Aogc%3Adef%3Acrs%3AEPSG%3A%3A4326&count=1000&startIndex=0&filter=%3Cfes%3AFilter+xmlns%3Afes%3D%22http%3A%2F%2Fwww.opengis.net%2Ffes%2F2.0%22+xmlns%3Aapp%3D%22http%3A%2F%2Fskjema.geonorge.no%2FSOSI%2Fproduktspesifikasjon%2FLokaliteterEnkeltminnerOgSikringssoner%2F20210217%22%3E%3Cfes%3AOr%3E%3Cfes%3APropertyIsEqualTo%3E%3Cfes%3AValueReference%3Eapp%3AkulturminneId%3C%2Ffes%3AValueReference%3E%3Cfes%3ALiteral%3E94449%3C%2Ffes%3ALiteral%3E%3C%2Ffes%3APropertyIsEqualTo%3E%3Cfes%3APropertyIsEqualTo%3E%3Cfes%3AValueReference%3Eapp%3AlinkKulturminnes%C3%B8k%3C%2Ffes%3AValueReference%3E%3Cfes%3ALiteral%3Ehttps%3A%2F%2Fkulturminnesok.no%2Fra%2Flokalitet%2F94449%3C%2Ffes%3ALiteral%3E%3C%2Ffes%3APropertyIsEqualTo%3E%3C%2Ffes%3AOr%3E%3C%2Ffes%3AFilter%3E"
    ],
    "service": "wfs"
  }
}
