{
  "type": "Feature",
  "id": "94448",
  "properties": {
    "kulturminneId": "94448",
    "navn": "Ravneberget",
    "sourceFeatureIds": [
      "lokalitet.286034",
      "lokalitet.286035",
      "lokalitet.286036"
    ],
    "linkKulturminnesøk": "https://kulturminnesok.no/ra/lokalitet/94448"
  },
  "geometry": {
    "type": "MultiPolygon",
    "coordinates": [
      [
        [
          [
            11.127695,
            59.302497
          ],
          [
            11.127693,
            59.302499
          ],
          [
            11.127688,
            59.302503
          ],
          [
            11.127685,
            59.302505
          ],
          [
            11.127677,
            59.302507
          ],
          [
            11.127672,
            59.302507
          ],
          [
            11.127663,
            59.302507
          ],
          [
            11.127659,
            59.302506
          ],
          [
            11.127652,
            59.302504
          ],
          [
            11.127648,
            59.302502
          ],
          [
            11.127644,
            59.302498
          ],
          [
            11.127643,
            59.302496
          ],
          [
            11.127644,
            59.302491
          ],
          [
            11.127645,
            59.302489
          ],
          [
            11.12765,
            59.302485
          ],
          [
            11.127654,
            59.302483
          ],
          [
            11.127662,
            59.302481
          ],
          [
            11.127666,
            59.302481
          ],
          [
            11.127675,
            59.302481
          ],
          [
            11.12768,
            59.302482
          ],
          [
            11.127687,
            59.302484
          ],
          [
            11.12769,
            59.302486
          ],
          [
            11.127694,
            59.30249
          ],
          [
            11.127695,
            59.302493
          ],
          [
            11.127695,
            59.302497
          ]
        ]
      ],
      [
        [
          [
            11.127378,
            59.305351
          ],
          [
            11.127431,
            59.305339
          ],
          [
            11.127481,
            59.305327
          ],
          [
            11.12749,
            59.305326
          ],
          [
            11.127499,
            59.305328
          ],
          [
            11.127505,
            59.305331
          ],
          [
            11.127578,
            59.305413
          ],
          [
            11.127689,
            59.305536
          ],
          [
            11.12769,
            59.30554
          ],
          [
            11.127687,
            59.305545
          ],
          [
            11.12768,
            59.305547
          ],
          [
            11.127627,
            59.30556
          ],
          [
            11.127577,
            59.305572
          ],
          [
            11.127568,
            59.305573
          ],
          [
            11.127559,
            59.305571
          ],
          [
            11.127553,
            59.305567
          ],
          [
            11.127444,
            59.305445
          ],
          [
            11.12737,
            59.305363
          ],
          [
            11.127368,
            59.305358
          ],
          [
            11.127371,
            59.305354
          ],
          [
            11.127378,
            59.305351
          ]
        ]
      ],
      [
        [
          [
            11.127706,
            59.305617
          ],
          [
            11.127736,
            59.30565
          ],
          [
            11.127738,
            59.305655
          ],
          [
            11.127735,
            59.305659
          ],
          [
            11.127728,
            59.305662
          ],
          [
            11.127701,
            59.305669
          ],
          [
            11.127673,
            59.305675
          ],
          [
            11.127664,
            59.305676
          ],
          [
            11.127655,
            59.305675
          ],
          [
            11.127649,
            59.305671
          ],
          [
            11.127618,
            59.305638
          ],
          [
            11.127617,
            59.305633
          ],
          [
            11.12762,
            59.305629
          ],
          [
            11.127627,
            59.305626
          ],
          [
            11.127655,
            59.305619
          ],
          [
            11.127682,
            59.305612
          ],
          [
            11.127691,
            59.305612
          ],
          [
            11.1277,
            59.305613
          ],
          [
            11.127706,
            59.305617
          ]
        ]
      ]
    ]
  },
  "cacheMetadata": {
    "verifiedDate": "2026-10-05",
    "sourceUrl": "https://wfs.geonorge.no/skwms1/wfs.kulturminner?service=WFS&version=2.0.0&request=GetFeature&typeNames=app%3ALokalitet&srsName=urn%3Aogc%3Adef%3Acrs%3AEPSG%3A%3A4326&count=1000&startIndex=0&filter=%3Cfes%3AFilter+xmlns%3Afes%3D%22http%3A%2F%2Fwww.opengis.net%2Ffes%2F2.0%22+xmlns%3Aapp%3D%22http%3A%2F%2Fskjema.geonorge.no%2FSOSI%2Fproduktspesifikasjon%2FLokaliteterEnkeltminnerOgSikringssoner%2F20210217%22%3E%3Cfes%3AOr%3E%3Cfes%3APropertyIsEqualTo%3E%3Cfes%3AValueReference%3Eapp%3AkulturminneId%3C%2Ffes%3AValueReference%3E%3Cfes%3ALiteral%3E94448%3C%2Ffes%3ALiteral%3E%3C%2Ffes%3APropertyIsEqualTo%3E%3Cfes%3APropertyIsEqualTo%3E%3Cfes%3AValueReference%3Eapp%3AlinkKulturminnes%C3%B8k%3C%2Ffes%3AValueReference%3E%3Cfes%3ALiteral%3Ehttps%3A%2F%2Fkulturminnesok.no%2Fra%2Flokalitet%2F94448%3C%2Ffes%3ALiteral%3E%3C%2Ffes%3APropertyIsEqualTo%3E%3C%2Ffes%3AOr%3E%3C%2Ffes%3AFilter%3E",
    "sourceUrls": [
      "https://wfs.geonorge.no/skwms1/wfs.kulturminner?service=WFS&version=2.0.0&request=GetFeature&typeNames=app%3ALokalitet&srsName=urn%3Aogc%3Adef%3Acrs%3AEPSG%3A%3A4326&count=1000&startIndex=0&filter=%3Cfes%3AFilter+xmlns%3Afes%3D%22http%3A%2F%2Fwww.opengis.net%2Ffes%2F2.0%22+xmlns%3Aapp%3D%22http%3A%2F%2Fskjema.geonorge.no%2FSOSI%2Fproduktspesifikasjon%2FLokaliteterEnkeltminnerOgSikringssoner%2F20210217%22%3E%3Cfes%3AOr%3E%3Cfes%3APropertyIsEqualTo%3E%3Cfes%3AValueReference%3Eapp%3AkulturminneId%3C%2Ffes%3AValueReference%3E%3Cfes%3ALiteral%3E94448%3C%2Ffes%3ALiteral%3E%3C%2Ffes%3APropertyIsEqualTo%3E%3Cfes%3APropertyIsEqualTo%3E%3Cfes%3AValueReference%3Eapp%3AlinkKulturminnes%C3%B8k%3C%2Ffes%3AValueReference%3E%3Cfes%3ALiteral%3Ehttps%3A%2F%2Fkulturminnesok.no%2Fra%2Flokalitet%2F94448%3C%2Ffes%3ALiteral%3E%3C%2Ffes%3APropertyIsEqualTo%3E%3C%2Ffes%3AOr%3E%3C%2Ffes%3AFilter%3E"
    ],
    "service": "wfs"
  }
}
